APRIZESAT 2             
1 28366U 04025A   22293.21467401  .00000156  00000+0  63398-4 0  9993
2 28366  98.1449 155.8680 0106718 320.4420  38.9014 14.36857364959738
SAUDICOMSAT 1           
1 28369U 04025D   22292.47166740  .00000422  00000+0  11317-3 0  9994
2 28369  98.4571 254.9826 0033891 153.2560 207.0392 14.52882775969912
SAUDICOMSAT 2           
1 28370U 04025E   22292.46192044  .00000463  00000+0  13539-3 0  9994
2 28370  98.5488 254.2950 0057416 347.3403  12.6344 14.47776506966590
APRIZESAT 1             
1 28372U 04025G   22292.48202507  .00000298  00000+0  88511-4 0  9993
2 28372  98.5098 254.4205 0045037 258.0738 101.5404 14.49869374968077
NANOSAT-1               
1 28493U 04049B   22293.54422434  .00000848  00000+0  13635-3 0  9999
2 28493  98.1173  34.4519 0003309 247.1426 112.9432 14.74172429958302
SAUDICOMSAT 7           
1 31119U 07012C   22293.10797432  .00000662  00000+0  13764-3 0  9993
2 31119  98.1967 237.8651 0060887  61.4319 299.2992 14.62207990826976
SAUDICOMSAT 6           
1 31121U 07012E   22293.39994500  .00000410  00000+0  94193-4 0  9999
2 31121  98.2362 233.4269 0076434 163.0779 197.2996 14.58983796825239
SAUDICOMSAT 5           
1 31124U 07012H   22293.43775846  .00000775  00000+0  15471-3 0  9992
2 31124  98.1661 239.6658 0051475   6.5731 353.6135 14.63949935827946
SAUDICOMSAT 3           
1 31125U 07012J   22293.06750084  .00000842  00000+0  16154-3 0  9993
2 31125  98.1320 240.6498 0041891 312.7210  47.0469 14.65795974828835
SAUDICOMSAT 4           
1 31127U 07012L   22293.10238248  .00000523  00000+0  11373-3 0  9997
2 31127  98.2191 236.2695 0068835 109.7293 251.1349 14.60713438826132
APRIZESAT 4             
1 35684U 09041D   22293.33488853  .00000643  00000+0  91718-4 0  9992
2 35684  98.3081 311.2512 0045690 312.2598  47.4742 14.79788804713584
APRIZESAT 3             
1 35686U 09041F   22293.50749070  .00001330  00000+0  14393-3 0  9991
2 35686  98.1039  22.9492 0072703 136.9338 223.7599 14.88163621717259
AISSAT 1                
1 36797U 10035C   22292.85360717  .00001385  00000+0  15949-3 0  9992
2 36797  98.2380 121.4278 0011900 122.1328 238.1044 14.87410473664938
S-NET D                 
1 43186U 18014G   22293.33083981  .00002136  00000+0  18391-3 0  9995
2 43186  97.6449 196.6330 0009735 234.4938 125.5378 14.98376295257614
S-NET B                 
1 43187U 18014H   22293.19758950  .00002137  00000+0  18400-3 0  9997
2 43187  97.6444 196.4478 0009718 234.7656 125.2658 14.98372877257599
S-NET A                 
1 43188U 18014J   22293.19789961  .00002150  00000+0  18513-3 0  9994
2 43188  97.6449 196.5186 0009715 234.8649 125.1664 14.98373080257595
S-NET C                 
1 43189U 18014K   22293.19884762  .00002160  00000+0  18598-3 0  9994
2 43189  97.6444 196.4358 0009691 234.3177 125.7144 14.98369123256147
SALSAT                  
1 46495U 20068K   22292.58085169  .00003179  00000+0  22737-3 0  9996
2 46495  97.7399 234.0138 0015335 211.6795 148.3509 15.05103418112858
